COSMOS 2361 [-]         
1 25590U 98076A   22253.84311075  .00000065  00000+0  53781-4 0  9992
2 25590  82.9355 143.0579 0031053 333.5512  97.3461 13.73026832187953
COSMOS 2378 [-]         
1 26818U 01023A   22253.74740447  .00000015  00000+0  54856-6 0  9991
2 26818  82.9313 161.0087 0031717 278.5340  81.2219 13.73974503 66023
COSMOS 2389 [-]         
1 27436U 02026A   22254.16840491  .00000070  00000+0  56920-4 0  9992
2 27436  82.9475 106.5817 0047259 135.3761 348.7560 13.74981510 18203
COSMOS 2398 [-]         
1 27818U 03023A   22253.58076669  .00000067  00000+0  56670-4 0  9995
2 27818  82.9448  68.8753 0031281 173.1353 187.0246 13.72216477965062
COSMOS 2407 [+]         
1 28380U 04028A   22254.30446039  .00000064  00000+0  49887-4 0  9998
2 28380  82.9637  12.8611 0040058 135.9147 224.5216 13.76119627910964
COSMOS 2414 [+]         
1 28521U 05002A   22254.48695478  .00000035  00000+0  16948-4 0  9990
2 28521  82.9538   3.1860 0039074 289.6791  70.0148 13.87664222893481
COSMOS 2429 [-]         
1 32052U 07038A   22254.09670427  .00000063  00000+0  49280-4 0  9995
2 32052  82.9813 139.2289 0039614 114.1317 246.3990 13.74968025752776
COSMOS 2454 [-]         
1 35635U 09039A   22254.48141888  .00000051  00000+0  28787-4 0  9991
2 35635  82.9605 349.3819 0018033 230.4820 129.4743 13.89693557666649
COSMOS 2463 [+]         
1 36519U 10017A   22254.24042965  .00000043  00000+0  31288-4 0  9992
2 36519  82.9642 179.8017 0036053 347.2442 128.3496 13.71479184619546
